[{"OBJECT_NAME":"ONEWEB-0284","OBJECT_ID":"2021-060AM","EPOCH":"2026-03-06T11:35:42.107136","MEAN_MOTION":13.16593245,"ECCENTRICITY":0.00019187,"INCLINATION":87.9002,"RA_OF_ASC_NODE":249.2023,"ARG_OF_PERICENTER":91.9581,"MEAN_ANOMALY":268.1769,"EPHEMERIS_TYPE":0,"CLASSIFICATION_TYPE":"U","NORAD_CAT_ID":49002,"ELEMENT_SET_NO":999,"REV_AT_EPOCH":22608,"BSTAR":0.00019743387,"MEAN_MOTION_DOT":8.8e-7,"MEAN_MOTION_DDOT":0},{"OBJECT_NAME":"ONEWEB-0285","OBJECT_ID":"2021-075A","EPOCH":"2026-03-06T19:49:46.310880","MEAN_MOTION":13.12442184,"ECCENTRICITY":0.0001859,"INCLINATION":87.9001,"RA_OF_ASC_NODE":10.9758,"ARG_OF_PERICENTER":81.8374,"MEAN_ANOMALY":278.2966,"EPHEMERIS_TYPE":0,"CLASSIFICATION_TYPE":"U","NORAD_CAT_ID":49075,"ELEMENT_SET_NO":999,"REV_AT_EPOCH":22178,"BSTAR":0.0010936,"MEAN_MOTION_DOT":4.06e-6,"MEAN_MOTION_DDOT":0},{"OBJECT_NAME":"ONEWEB-0286","OBJECT_ID":"2021-075B","EPOCH":"2026-03-06T19:23:57.869088","MEAN_MOTION":13.12443954,"ECCENTRICITY":0.0001754,"INCLINATION":87.8991,"RA_OF_ASC_NODE":11.0059,"ARG_OF_PERICENTER":73.0412,"MEAN_ANOMALY":287.0908,"EPHEMERIS_TYPE":0,"CLASSIFICATION_TYPE":"U","NORAD_CAT_ID":49076,"ELEMENT_SET_NO":999,"REV_AT_EPOCH":22113,"BSTAR":-0.00053282,"MEAN_MOTION_DOT":-1.79e-6,"MEAN_MOTION_DDOT":0},{"OBJECT_NAME":"ONEWEB-0287","OBJECT_ID":"2021-075C","EPOCH":"2026-03-06T08:22:40.576800","MEAN_MOTION":13.17649041,"ECCENTRICITY":0.00018788,"INCLINATION":87.9143,"RA_OF_ASC_NODE":26.2883,"ARG_OF_PERICENTER":68.4308,"MEAN_ANOMALY":291.7024,"EPHEMERIS_TYPE":0,"CLASSIFICATION_TYPE":"U","NORAD_CAT_ID":49077,"ELEMENT_SET_NO":999,"REV_AT_EPOCH":22008,"BSTAR":-0.00038725349,"MEAN_MOTION_DOT":-1.37e-6,"MEAN_MOTION_DDOT":0},{"OBJECT_NAME":"ONEWEB-0288","OBJECT_ID":"2021-075D","EPOCH":"2026-03-06T13:20:39.619968","MEAN_MOTION":13.12440966,"ECCENTRICITY":0.00019107,"INCLINATION":87.8999,"RA_OF_ASC_NODE":11.0244,"ARG_OF_PERICENTER":77.3974,"MEAN_ANOMALY":282.7368,"EPHEMERIS_TYPE":0,"CLASSIFICATION_TYPE":"U","NORAD_CAT_ID":49078,"ELEMENT_SET_NO":999,"REV_AT_EPOCH":22172,"BSTAR":-0.00095993789,"MEAN_MOTION_DOT":-3.33e-6,"MEAN_MOTION_DDOT":0},{"OBJECT_NAME":"ONEWEB-0289","OBJECT_ID":"2021-075E","EPOCH":"2026-03-06T20:14:26.486304","MEAN_MOTION":13.1764871,"ECCENTRICITY":0.0002279,"INCLINATION":87.9151,"RA_OF_ASC_NODE":26.2016,"ARG_OF_PERICENTER":84.4947,"MEAN_ANOMALY":275.6444,"EPHEMERIS_TYPE":0,"CLASSIFICATION_TYPE":"U","NORAD_CAT_ID":49079,"ELEMENT_SET_NO":999,"REV_AT_EPOCH":22072,"BSTAR":-0.00067926,"MEAN_MOTION_DOT":-2.51e-6,"MEAN_MOTION_DDOT":0},{"OBJECT_NAME":"ONEWEB-0290","OBJECT_ID":"2021-075F","EPOCH":"2026-03-06T19:35:48.006240","MEAN_MOTION":13.1764834,"ECCENTRICITY":0.0002308,"INCLINATION":87.9153,"RA_OF_ASC_NODE":26.1751,"ARG_OF_PERICENTER":90.0992,"MEAN_ANOMALY":270.0404,"EPHEMERIS_TYPE":0,"CLASSIFICATION_TYPE":"U","NORAD_CAT_ID":49080,"ELEMENT_SET_NO":999,"REV_AT_EPOCH":22013,"BSTAR":0.00020643,"MEAN_MOTION_DOT":9.3e-7,"MEAN_MOTION_DDOT":0},{"OBJECT_NAME":"ONEWEB-0291","OBJECT_ID":"2021-075G","EPOCH":"2026-03-06T13:45:52.346592","MEAN_MOTION":13.17649395,"ECCENTRICITY":0.00021426,"INCLINATION":87.9152,"RA_OF_ASC_NODE":26.232,"ARG_OF_PERICENTER":74.0546,"MEAN_ANOMALY":286.0821,"EPHEMERIS_TYPE":0,"CLASSIFICATION_TYPE":"U","NORAD_CAT_ID":49081,"ELEMENT_SET_NO":999,"REV_AT_EPOCH":22009,"BSTAR":-3.26229e-6,"MEAN_MOTION_DOT":1.2e-7,"MEAN_MOTION_DDOT":0},{"OBJECT_NAME":"ONEWEB-0293","OBJECT_ID":"2021-075H","EPOCH":"2026-03-06T19:50:22.328448","MEAN_MOTION":13.17649406,"ECCENTRICITY":0.0001995,"INCLINATION":87.9145,"RA_OF_ASC_NODE":26.1928,"ARG_OF_PERICENTER":81.3342,"MEAN_ANOMALY":278.8016,"EPHEMERIS_TYPE":0,"CLASSIFICATION_TYPE":"U","NORAD_CAT_ID":49082,"ELEMENT_SET_NO":999,"REV_AT_EPOCH":22015,"BSTAR":3.5089e-5,"MEAN_MOTION_DOT":2.7e-7,"MEAN_MOTION_DDOT":0},{"OBJECT_NAME":"ONEWEB-0294","OBJECT_ID":"2021-075J","EPOCH":"2026-03-06T13:30:24.842592","MEAN_MOTION":13.12441935,"ECCENTRICITY":0.00021344,"INCLINATION":87.9002,"RA_OF_ASC_NODE":11.0249,"ARG_OF_PERICENTER":82.487,"MEAN_ANOMALY":277.6501,"EPHEMERIS_TYPE":0,"CLASSIFICATION_TYPE":"U","NORAD_CAT_ID":49083,"ELEMENT_SET_NO":999,"REV_AT_EPOCH":22111,"BSTAR":-0.00091432565,"MEAN_MOTION_DOT":-3.16e-6,"MEAN_MOTION_DDOT":0},{"OBJECT_NAME":"ONEWEB-0295","OBJECT_ID":"2021-075K","EPOCH":"2026-03-06T14:21:07.067808","MEAN_MOTION":13.17650116,"ECCENTRICITY":0.00019816,"INCLINATION":87.9141,"RA_OF_ASC_NODE":26.243,"ARG_OF_PERICENTER":71.6916,"MEAN_ANOMALY":288.4431,"EPHEMERIS_TYPE":0,"CLASSIFICATION_TYPE":"U","NORAD_CAT_ID":49084,"ELEMENT_SET_NO":999,"REV_AT_EPOCH":22008,"BSTAR":0.00013510709,"MEAN_MOTION_DOT":6.5e-7,"MEAN_MOTION_DDOT":0},{"OBJECT_NAME":"ONEWEB-0296","OBJECT_ID":"2021-075L","EPOCH":"2026-03-06T20:20:16.418400","MEAN_MOTION":13.12440796,"ECCENTRICITY":0.0002024,"INCLINATION":87.9004,"RA_OF_ASC_NODE":10.9722,"ARG_OF_PERICENTER":71.2156,"MEAN_ANOMALY":288.9192,"EPHEMERIS_TYPE":0,"CLASSIFICATION_TYPE":"U","NORAD_CAT_ID":49085,"ELEMENT_SET_NO":999,"REV_AT_EPOCH":22115,"BSTAR":0.00029757,"MEAN_MOTION_DOT":1.2e-6,"MEAN_MOTION_DDOT":0},{"OBJECT_NAME":"ONEWEB-0297","OBJECT_ID":"2021-075M","EPOCH":"2026-03-06T19:14:24.115200","MEAN_MOTION":13.12442214,"ECCENTRICITY":0.0001829,"INCLINATION":87.8993,"RA_OF_ASC_NODE":11.0064,"ARG_OF_PERICENTER":75.8515,"MEAN_ANOMALY":284.2817,"EPHEMERIS_TYPE":0,"CLASSIFICATION_TYPE":"U","NORAD_CAT_ID":49086,"ELEMENT_SET_NO":999,"REV_AT_EPOCH":22175,"BSTAR":-0.00074431,"MEAN_MOTION_DOT":-2.55e-6,"MEAN_MOTION_DDOT":0},{"OBJECT_NAME":"ONEWEB-0298","OBJECT_ID":"2021-075N","EPOCH":"2026-03-06T14:27:22.185504","MEAN_MOTION":13.17650571,"ECCENTRICITY":0.00016701,"INCLINATION":87.9146,"RA_OF_ASC_NODE":26.2388,"ARG_OF_PERICENTER":79.7602,"MEAN_ANOMALY":280.3718,"EPHEMERIS_TYPE":0,"CLASSIFICATION_TYPE":"U","NORAD_CAT_ID":49087,"ELEMENT_SET_NO":999,"REV_AT_EPOCH":22011,"BSTAR":0.00015017155,"MEAN_MOTION_DOT":7.1e-7,"MEAN_MOTION_DDOT":0},{"OBJECT_NAME":"ONEWEB-0299","OBJECT_ID":"2021-075P","EPOCH":"2026-03-06T09:01:33.153024","MEAN_MOTION":13.17649971,"ECCENTRICITY":0.00018444,"INCLINATION":87.9159,"RA_OF_ASC_NODE":26.254,"ARG_OF_PERICENTER":77.986,"MEAN_ANOMALY":282.1478,"EPHEMERIS_TYPE":0,"CLASSIFICATION_TYPE":"U","NORAD_CAT_ID":49088,"ELEMENT_SET_NO":999,"REV_AT_EPOCH":22006,"BSTAR":-2.5353578e-5,"MEAN_MOTION_DOT":3.0e-8,"MEAN_MOTION_DDOT":0},{"OBJECT_NAME":"ONEWEB-0300","OBJECT_ID":"2021-075Q","EPOCH":"2026-03-06T13:34:04.439424","MEAN_MOTION":13.12444025,"ECCENTRICITY":0.0001423,"INCLINATION":87.9001,"RA_OF_ASC_NODE":11.0208,"ARG_OF_PERICENTER":78.5733,"MEAN_ANOMALY":281.5555,"EPHEMERIS_TYPE":0,"CLASSIFICATION_TYPE":"U","NORAD_CAT_ID":49089,"ELEMENT_SET_NO":999,"REV_AT_EPOCH":22174,"BSTAR":-0.00078250614,"MEAN_MOTION_DOT":-2.69e-6,"MEAN_MOTION_DDOT":0},{"OBJECT_NAME":"ONEWEB-0301","OBJECT_ID":"2021-075R","EPOCH":"2026-03-06T09:31:19.032384","MEAN_MOTION":13.12443146,"ECCENTRICITY":0.00014119,"INCLINATION":87.9,"RA_OF_ASC_NODE":11.0548,"ARG_OF_PERICENTER":80.2024,"MEAN_ANOMALY":279.9264,"EPHEMERIS_TYPE":0,"CLASSIFICATION_TYPE":"U","NORAD_CAT_ID":49090,"ELEMENT_SET_NO":999,"REV_AT_EPOCH":22108,"BSTAR":-0.00037043673,"MEAN_MOTION_DOT":-1.21e-6,"MEAN_MOTION_DDOT":0}]
