ONEWEB-0284             
1 49002U 21060AM  26065.48312624  .00000088  00000+0  19743-3 0  9995
2 49002  87.9002 249.2023 0001918  91.9581 268.1769 13.16593245226083
ONEWEB-0285             
1 49075U 21075A   26065.82623045  .00000406  00000+0  10936-2 0  9999
2 49075  87.9001  10.9758 0001859  81.8374 278.2966 13.12442184221786
ONEWEB-0286             
1 49076U 21075B   26065.80830867 -.00000179  00000+0 -53282-3 0  9991
2 49076  87.8991  11.0059 0001754  73.0412 287.0908 13.12443954221139
ONEWEB-0287             
1 49077U 21075C   26065.34908075 -.00000137  00000+0 -38725-3 0  9997
2 49077  87.9143  26.2883 0001878  68.4308 291.7024 13.17649041220086
ONEWEB-0288             
1 49078U 21075D   26065.55601412 -.00000333  00000+0 -95994-3 0  9995
2 49078  87.8999  11.0244 0001910  77.3974 282.7368 13.12440966221726
ONEWEB-0289             
1 49079U 21075E   26065.84336211 -.00000251  00000+0 -67926-3 0  9993
2 49079  87.9151  26.2016 0002279  84.4947 275.6444 13.17648710220728
ONEWEB-0290             
1 49080U 21075F   26065.81652785  .00000093  00000+0  20643-3 0  9996
2 49080  87.9153  26.1751 0002308  90.0992 270.0404 13.17648340220132
ONEWEB-0291             
1 49081U 21075G   26065.57352253  .00000012  00000+0 -32623-5 0  9992
2 49081  87.9152  26.2320 0002142  74.0546 286.0821 13.17649395220094
ONEWEB-0293             
1 49082U 21075H   26065.82664732  .00000027  00000+0  35089-4 0  9992
2 49082  87.9145  26.1928 0001995  81.3342 278.8016 13.17649406220155
ONEWEB-0294             
1 49083U 21075J   26065.56278753 -.00000316  00000+0 -91433-3 0  9995
2 49083  87.9002  11.0249 0002134  82.4870 277.6501 13.12441935221116
ONEWEB-0295             
1 49084U 21075K   26065.59799847  .00000065  00000+0  13511-3 0  9991
2 49084  87.9141  26.2430 0001981  71.6916 288.4431 13.17650116220086
ONEWEB-0296             
1 49085U 21075L   26065.84741225  .00000120  00000+0  29757-3 0  9998
2 49085  87.9004  10.9722 0002024  71.2156 288.9192 13.12440796221154
ONEWEB-0297             
1 49086U 21075M   26065.80166800 -.00000255  00000+0 -74431-3 0  9995
2 49086  87.8993  11.0064 0001829  75.8515 284.2817 13.12442214221759
ONEWEB-0298             
1 49087U 21075N   26065.60234011  .00000071  00000+0  15017-3 0  9993
2 49087  87.9146  26.2388 0001670  79.7602 280.3718 13.17650571220110
ONEWEB-0299             
1 49088U 21075P   26065.37607816  .00000003  00000+0 -25354-4 0  9997
2 49088  87.9159  26.2540 0001844  77.9860 282.1478 13.17649971220063
ONEWEB-0300             
1 49089U 21075Q   26065.56532916 -.00000269  00000+0 -78251-3 0  9995
2 49089  87.9001  11.0208 0001423  78.5733 281.5555 13.12444025221745
ONEWEB-0301             
1 49090U 21075R   26065.39674806 -.00000121  00000+0 -37044-3 0  9995
2 49090  87.9000  11.0548 0001411  80.2024 279.9264 13.12443146221081
